{
  "norad_id": 65018,
  "name": "STARLINK-34623",
  "history": [
    {
      "epoch": "2026-03-28T18:00:12.842496Z",
      "apogee_km": 475.90805237407494,
      "perigee_km": 474.4319871081625,
      "latitude_deg": -4.270503701367374e-05,
      "longitude_deg": 109.76724167387164,
      "height_km": 475.8930150309264,
      "semi_major_axis_km": 6853.307019741118,
      "eccentricity": 0.00010769,
      "inclination_deg": 53.1578,
      "raan_deg": 205.9869,
      "arg_perigee_deg": 76.2706,
      "mean_anomaly_deg": 283.8414,
      "mean_motion_rev_day": 15.30215088
    },
    {
      "epoch": "2026-03-29T08:06:41.640480Z",
      "apogee_km": 476.2614500564441,
      "perigee_km": 474.0237172067955,
      "latitude_deg": 1.6946334506191714e-05,
      "longitude_deg": -105.16230035478452,
      "height_km": 476.0462372341447,
      "semi_major_axis_km": 6853.279583631619,
      "eccentricity": 0.00016326,
      "inclination_deg": 53.1583,
      "raan_deg": 203.2567,
      "arg_perigee_deg": 90.3206,
      "mean_anomaly_deg": 269.7982,
      "mean_motion_rev_day": 15.30224277
    },
    {
      "epoch": "2026-03-30T13:53:42.742752Z",
      "apogee_km": 476.08891130705615,
      "perigee_km": 474.41325792036787,
      "latitude_deg": -2.4992539383099695e-05,
      "longitude_deg": 161.0956059912948,
      "height_km": 476.2195097913061,
      "semi_major_axis_km": 6853.388084613712,
      "eccentricity": 0.00012225,
      "inclination_deg": 53.1588,
      "raan_deg": 197.4924,
      "arg_perigee_deg": 94.8208,
      "mean_anomaly_deg": 265.2932,
      "mean_motion_rev_day": 15.30187938
    }
  ]
}